{
  "type": "FeatureCollection",
  "features": [
    {
      "type": "Feature",
      "properties": {
        "norad_id": 66892,
        "name": "STARLINK-35883",
        "group": "last-30-days",
        "lat": 41.47653253730335,
        "lon": 138.69969586685832,
        "alt_km": 405.8868681010026,
        "timestamp": "2025-12-27T13:34:48.008161+00:00",
        "meta_object_name": "STARLINK-35883",
        "meta_object_id": "2025-283Q",
        "meta_epoch": "2025-12-27T06:00:02.000160",
        "meta_mean_motion": 15.53017089,
        "meta_eccentricity": 0.00014864,
        "meta_inclination": 53.1598,
        "meta_ra_of_asc_node": 1.7273,
        "meta_arg_of_pericenter": 79.8558,
        "meta_mean_anomaly": 78.3633,
        "meta_ephemeris_type": 0,
        "meta_classification_type": "U",
        "meta_norad_cat_id": 66892,
        "meta_element_set_no": 999,
        "meta_rev_at_epoch": 470,
        "meta_bstar": -0.036289777,
        "meta_mean_motion_dot": -0.02054191,
        "meta_mean_motion_ddot": 0,
        "tle_line1": "1 66892U 25283Q   25361.25002315 -.02054191  00000+0 -36290-1 0  9990",
        "tle_line2": "2 66892  53.1598   1.7273 0001486  79.8558  78.3633 15.53017089  4705"
      },
      "geometry": {
        "type": "Point",
        "coordinates": [
          138.69969586685832,
          41.47653253730335
        ]
      }
    },
    {
      "type": "Feature",
      "properties": {
        "norad_id": 66893,
        "name": "STARLINK-36033",
        "group": "last-30-days",
        "lat": 40.3088910385059,
        "lon": 140.71082227294892,
        "alt_km": 406.1739344545722,
        "timestamp": "2025-12-27T13:34:48.008173+00:00",
        "meta_object_name": "STARLINK-36033",
        "meta_object_id": "2025-283R",
        "meta_epoch": "2025-12-27T06:00:02.000160",
        "meta_mean_motion": 15.53014786,
        "meta_eccentricity": 0.00014078,
        "meta_inclination": 53.1599,
        "meta_ra_of_asc_node": 1.7232,
        "meta_arg_of_pericenter": 75.3752,
        "meta_mean_anomaly": 84.7604,
        "meta_ephemeris_type": 0,
        "meta_classification_type": "U",
        "meta_norad_cat_id": 66893,
        "meta_element_set_no": 999,
        "meta_rev_at_epoch": 476,
        "meta_bstar": -0.036194152,
        "meta_mean_motion_dot": -0.0204916,
        "meta_mean_motion_ddot": 0,
        "tle_line1": "1 66893U 25283R   25361.25002315 -.02049160  00000+0 -36194-1 0  9994",
        "tle_line2": "2 66893  53.1599   1.7232 0001407  75.3752  84.7604 15.53014786  4768"
      },
      "geometry": {
        "type": "Point",
        "coordinates": [
          140.71082227294892,
          40.3088910385059
        ]
      }
    },
    {
      "type": "Feature",
      "properties": {
        "norad_id": 66894,
        "name": "STARLINK-35718",
        "group": "last-30-days",
        "lat": 39.10779251298003,
        "lon": 142.65325296662672,
        "alt_km": 406.29920275274617,
        "timestamp": "2025-12-27T13:34:48.008183+00:00",
        "meta_object_name": "STARLINK-35718",
        "meta_object_id": "2025-283S",
        "meta_epoch": "2025-12-27T06:00:02.000160",
        "meta_mean_motion": 15.53013433,
        "meta_eccentricity": 0.00016155,
        "meta_inclination": 53.1601,
        "meta_ra_of_asc_node": 1.7202,
        "meta_arg_of_pericenter": 74.6642,
        "meta_mean_anomaly": 87.3847,
        "meta_ephemeris_type": 0,
        "meta_classification_type": "U",
        "meta_norad_cat_id": 66894,
        "meta_element_set_no": 999,
        "meta_rev_at_epoch": 476,
        "meta_bstar": -0.036098724,
        "meta_mean_motion_dot": -0.02044379,
        "meta_mean_motion_ddot": 0,
        "tle_line1": "1 66894U 25283S   25361.25002315 -.02044379  00000+0 -36099-1 0  9996",
        "tle_line2": "2 66894  53.1601   1.7202 0001615  74.6642  87.3847 15.53013433  4767"
      },
      "geometry": {
        "type": "Point",
        "coordinates": [
          142.65325296662672,
          39.10779251298003
        ]
      }
    },
    {
      "type": "Feature",
      "properties": {
        "norad_id": 66895,
        "name": "STARLINK-35971",
        "group": "last-30-days",
        "lat": 36.61254303242316,
        "lon": 146.3407743241573,
        "alt_km": 406.6922159338492,
        "timestamp": "2025-12-27T13:34:48.008193+00:00",
        "meta_object_name": "STARLINK-35971",
        "meta_object_id": "2025-283T",
        "meta_epoch": "2025-12-27T06:00:02.000160",
        "meta_mean_motion": 15.53015892,
        "meta_eccentricity": 0.00015326,
        "meta_inclination": 53.1599,
        "meta_ra_of_asc_node": 1.71,
        "meta_arg_of_pericenter": 82.4946,
        "meta_mean_anomaly": 83.3903,
        "meta_ephemeris_type": 0,
        "meta_classification_type": "U",
        "meta_norad_cat_id": 66895,
        "meta_element_set_no": 999,
        "meta_rev_at_epoch": 476,
        "meta_bstar": -0.036217784,
        "meta_mean_motion_dot": -0.02050506,
        "meta_mean_motion_ddot": 0,
        "tle_line1": "1 66895U 25283T   25361.25002315 -.02050506  00000+0 -36218-1 0  9999",
        "tle_line2": "2 66895  53.1599   1.7100 0001532  82.4946  83.3903 15.53015892  4763"
      },
      "geometry": {
        "type": "Point",
        "coordinates": [
          146.3407743241573,
          36.61254303242316
        ]
      }
    },
    {
      "type": "Feature",
      "properties": {
        "norad_id": 66896,
        "name": "STARLINK-35791",
        "group": "last-30-days",
        "lat": 37.874278853945604,
        "lon": 144.5272523127217,
        "alt_km": 406.6377005320337,
        "timestamp": "2025-12-27T13:34:48.008205+00:00",
        "meta_object_name": "STARLINK-35791",
        "meta_object_id": "2025-283U",
        "meta_epoch": "2025-12-27T06:00:02.000160",
        "meta_mean_motion": 15.53017043,
        "meta_eccentricity": 0.00014376,
        "meta_inclination": 53.1593,
        "meta_ra_of_asc_node": 1.7146,
        "meta_arg_of_pericenter": 71.1468,
        "meta_mean_anomaly": 92.8177,
        "meta_ephemeris_type": 0,
        "meta_classification_type": "U",
        "meta_norad_cat_id": 66896,
        "meta_element_set_no": 999,
        "meta_rev_at_epoch": 476,
        "meta_bstar": -0.036176548,
        "meta_mean_motion_dot": -0.02048441,
        "meta_mean_motion_ddot": 0,
        "tle_line1": "1 66896U 25283U   25361.25002315 -.02048441  00000+0 -36177-1 0  9999",
        "tle_line2": "2 66896  53.1593   1.7146 0001437  71.1468  92.8177 15.53017043  4764"
      },
      "geometry": {
        "type": "Point",
        "coordinates": [
          144.5272523127217,
          37.874278853945604
        ]
      }
    },
    {
      "type": "Feature",
      "properties": {
        "norad_id": 66897,
        "name": "STARLINK-36079",
        "group": "last-30-days",
        "lat": 35.324909334606154,
        "lon": 148.09425789881192,
        "alt_km": 407.10057476891416,
        "timestamp": "2025-12-27T13:34:48.008215+00:00",
        "meta_object_name": "STARLINK-36079",
        "meta_object_id": "2025-283V",
        "meta_epoch": "2025-12-27T06:00:02.000160",
        "meta_mean_motion": 15.53015406,
        "meta_eccentricity": 0.0001391,
        "meta_inclination": 53.1598,
        "meta_ra_of_asc_node": 1.7066,
        "meta_arg_of_pericenter": 72.429,
        "meta_mean_anomaly": 95.37,
        "meta_ephemeris_type": 0,
        "meta_classification_type": "U",
        "meta_norad_cat_id": 66897,
        "meta_element_set_no": 999,
        "meta_rev_at_epoch": 476,
        "meta_bstar": -0.03614831,
        "meta_mean_motion_dot": -0.02046876,
        "meta_mean_motion_ddot": 0,
        "tle_line1": "1 66897U 25283V   25361.25002315 -.02046876  00000+0 -36148-1 0  9998",
        "tle_line2": "2 66897  53.1598   1.7066 0001391  72.4290  95.3700 15.53015406  4768"
      },
      "geometry": {
        "type": "Point",
        "coordinates": [
          148.09425789881192,
          35.324909334606154
        ]
      }
    },
    {
      "type": "Feature",
      "properties": {
        "norad_id": 66898,
        "name": "STARLINK-36065",
        "group": "last-30-days",
        "lat": 34.010864588614446,
        "lon": 149.79384851957403,
        "alt_km": 407.2871600400913,
        "timestamp": "2025-12-27T13:34:48.008229+00:00",
        "meta_object_name": "STARLINK-36065",
        "meta_object_id": "2025-283W",
        "meta_epoch": "2025-12-27T06:00:02.000160",
        "meta_mean_motion": 15.53016051,
        "meta_eccentricity": 0.00014246,
        "meta_inclination": 53.1598,
        "meta_ra_of_asc_node": 1.7025,
        "meta_arg_of_pericenter": 75.8545,
        "meta_mean_anomaly": 93.863,
        "meta_ephemeris_type": 0,
        "meta_classification_type": "U",
        "meta_norad_cat_id": 66898,
        "meta_element_set_no": 999,
        "meta_rev_at_epoch": 476,
        "meta_bstar": -0.036188404,
        "meta_mean_motion_dot": -0.02048965,
        "meta_mean_motion_ddot": 0,
        "tle_line1": "1 66898U 25283W   25361.25002315 -.02048965  00000+0 -36188-1 0  9994",
        "tle_line2": "2 66898  53.1598   1.7025 0001424  75.8545  93.8630 15.53016051  4763"
      },
      "geometry": {
        "type": "Point",
        "coordinates": [
          149.79384851957403,
          34.010864588614446
        ]
      }
    }
  ]
}